ONEWEB-0229             
1 48779U 21045N   25209.36175230 -.00000112  00000+0 -33236-3 0  9997
2 48779  87.9082 323.7670 0002102  98.9717 261.1651 13.15548121201832
ONEWEB-0228             
1 48780U 21045P   25209.62334410  .00000139  00000+0  33640-3 0  9991
2 48780  87.9081 323.6892 0002015  95.9391 264.1969 13.15547673201786
ONEWEB-0232             
1 48781U 21045Q   25209.59786658  .00000057  00000+0  11752-3 0  9992
2 48781  87.9074 323.6886 0001966  98.9169 261.2184 13.15548494202108
ONEWEB-0231             
1 48782U 21045R   25209.34749731 -.00000213  00000+0 -60004-3 0  9997
2 48782  87.9068 323.7912 0002191  95.3825 264.7555 13.15548773201765
ONEWEB-0234             
1 48783U 21045S   25209.61354517  .00000144  00000+0  34784-3 0  9999
2 48783  87.9076 323.7061 0001075  91.9597 268.1657 13.15553836201934
ONEWEB-0238             
1 48784U 21045T   25209.61382007  .00000154  00000+0  37456-3 0  9995
2 48784  87.9071 323.7037 0001543  99.1827 260.9478 13.15548045201835
ONEWEB-0240             
1 48785U 21045U   25209.33086969  .00000059  00000+0  12220-3 0  9999
2 48785  87.9081 323.7410 0001936  87.1918 272.9434 13.15549396201820
ONEWEB-0246             
1 48786U 21045V   25209.62954275  .00000103  00000+0  23853-3 0  9990
2 48786  87.9084 323.6931 0002092  99.3014 260.8353 13.15549912201737
